{
    "links": {
        "self": "http://www.neowsapp.com/rest/v1/neo/3644729?api_key=iIulBulltgU6a56xZRHN4H3l9WmuAYTsLGpBGhQ2"
    },
    "id": "3644729",
    "neo_reference_id": "3644729",
    "name": "(2013 MV10)",
    "designation": "2013 MV10",
    "nasa_jpl_url": "http://ssd.jpl.nasa.gov/sbdb.cgi?sstr=3644729",
    "absolute_magnitude_h": 22.0,
    "estimated_diameter": {
        "kilometers": {
            "estimated_diameter_min": 0.1058168859,
            "estimated_diameter_max": 0.2366137501
        },
        "meters": {
            "estimated_diameter_min": 105.8168859331,
            "estimated_diameter_max": 236.6137501138
        },
        "miles": {
            "estimated_diameter_min": 0.0657515442,
            "estimated_diameter_max": 0.1470249225
        },
        "feet": {
            "estimated_diameter_min": 347.1682720448,
            "estimated_diameter_max": 776.2918559233
        }
    },
    "is_potentially_hazardous_asteroid": false,
    "close_approach_data": [
        {
            "close_approach_date": "2013-05-08",
            "close_approach_date_full": "2013-May-08 18:49",
            "epoch_date_close_approach": 1368038940000,
            "relative_velocity": {
                "kilometers_per_second": "6.9976764637",
                "kilometers_per_hour": "25191.6352693072",
                "miles_per_hour": "15653.1024816426"
            },
            "miss_distance": {
                "astronomical": "0.1683979153",
                "lunar": "65.5067890517",
                "kilometers": "25191969.441320411",
                "miles": "15653563.9454312318"
            },
            "orbiting_body": "Earth"
        }
    ],
    "orbital_data": {
        "orbit_id": "7",
        "orbit_determination_date": "2017-04-06 08:45:30",
        "first_observation_date": "2013-06-29",
        "last_observation_date": "2013-08-13",
        "data_arc_in_days": 45,
        "observations_used": 13,
        "orbit_uncertainty": "8",
        "minimum_orbit_intersection": ".143118",
        "jupiter_tisserand_invariant": "3.730",
        "epoch_osculation": "2456491.5",
        "eccentricity": ".4264101744762761",
        "semi_major_axis": "1.982714354636723",
        "inclination": "8.022688375448567",
        "ascending_node_longitude": "208.821895846683",
        "orbital_period": "1019.738116884787",
        "perihelion_distance": "1.137264780739461",
        "perihelion_argument": "31.45096191583782",
        "aphelion_distance": "2.828163928533985",
        "perihelion_time": "2456428.784135648303",
        "mean_anomaly": "22.14069553032292",
        "mean_motion": ".3530318167371925",
        "equinox": "J2000",
        "orbit_class": {
            "orbit_class_type": "AMO",
            "orbit_class_description": "Near-Earth asteroid orbits similar to that of 1221 Amor",
            "orbit_class_range": "1.017 AU < q (perihelion) < 1.3 AU"
        }
    },
    "is_sentry_object": false
}